[Satellite]
VERSION=1.1
NAME=BSAT-3A
NICKNAME=BSAT-3A
TLE1=1 32019U 07036B   15055.52860354 -.00000376  00000-0  10000-3 0  9991
TLE2=2 32019   0.0659 246.3614 0003197  23.9297 183.9010  1.00270374 27640
